******** Week 379 almanac for PRN-01 ********
ID:                         01
Health:                     000
Eccentricity:               0.1805305481E-002
Time of Applicability(s):  61440.0000
Orbital Inclination(rad):   0.9571165268
Rate of Right Ascen(r/s):  -0.8171768958E-008
SQRT(A)  (m 1/2):           5153.554199
Right Ascen at Week(rad):   0.7556971345E+000
Argument of Perigee(rad):   0.191841225
Mean Anom(rad):            -0.9039768257E+000
Af0(s):                     0.2241134644E-003
Af1(s/s):                  -0.1091393642E-010
week:                        379

******** Week 379 almanac for PRN-02 ********
ID:                         02
Health:                     000
Eccentricity:               0.1689577103E-001
Time of Applicability(s):  61440.0000
Orbital Inclination(rad):   0.9621618855
Rate of Right Ascen(r/s):  -0.7977475151E-008
SQRT(A)  (m 1/2):           5153.687012
Right Ascen at Week(rad):   0.5937550524E+000
Argument of Perigee(rad):  -0.740843062
Mean Anom(rad):             0.5075233111E+000
Af0(s):                     0.1363754272E-003
Af1(s/s):                   0.7275957614E-011
week:                        379

******** Week 379 almanac for PRN-03 ********
ID:                         03
Health:                     000
Eccentricity:               0.6985187531E-002
Time of Applicability(s):  61440.0000
Orbital Inclination(rad):   0.9946451271
Rate of Right Ascen(r/s):  -0.7886042771E-008
SQRT(A)  (m 1/2):           5153.516602
Right Ascen at Week(rad):   0.1747978223E+001
Argument of Perigee(rad):   1.259123713
Mean Anom(rad):            -0.2975103307E+001
Af0(s):                     0.3776550293E-003
Af1(s/s):                  -0.1818989404E-010
week:                        379

******** Week 379 almanac for PRN-04 ********
ID:                         04
Health:                     000
Eccentricity:               0.3795623779E-002
Time of Applicability(s):  61440.0000
Orbital Inclination(rad):   0.9724982795
Rate of Right Ascen(r/s):  -0.7508884204E-008
SQRT(A)  (m 1/2):           5153.643066
Right Ascen at Week(rad):   0.2816351650E+001
Argument of Perigee(rad):  -2.899612802
Mean Anom(rad):            -0.1436571510E-001
Af0(s):                     0.6198883057E-004
Af1(s/s):                   0.0000000000E+000
week:                        379

******** Week 379 almanac for PRN-05 ********
ID:                         05
Health:                     000
Eccentricity:               0.5617618561E-002
Time of Applicability(s):  61440.0000
Orbital Inclination(rad):   0.9810370397
Rate of Right Ascen(r/s):  -0.8057478483E-008
SQRT(A)  (m 1/2):           5153.723633
Right Ascen at Week(rad):   0.1686473683E+001
Argument of Perigee(rad):   1.474658500
Mean Anom(rad):             0.5329002818E+000
Af0(s):                    -0.2346038818E-003
Af1(s/s):                   0.0000000000E+000
week:                        379

******** Week 379 almanac for PRN-06 ********
ID:                         06
Health:                     000
Eccentricity:               0.3692626953E-002
Time of Applicability(s):  61440.0000
Orbital Inclination(rad):   0.9858966429
Rate of Right Ascen(r/s):  -0.7874613724E-008
SQRT(A)  (m 1/2):           5153.675293
Right Ascen at Week(rad):   0.7099185189E+000
Argument of Perigee(rad):  -0.546455189
Mean Anom(rad):            -0.1695675321E+001
Af0(s):                    -0.5750656128E-003
Af1(s/s):                   0.7275957614E-011
week:                        379

******** Week 379 almanac for PRN-07 ********
ID:                         07
Health:                     000
Eccentricity:               0.2092742920E-001
Time of Applicability(s):  61440.0000
Orbital Inclination(rad):   0.9511603670
Rate of Right Ascen(r/s):  -0.7828897534E-008
SQRT(A)  (m 1/2):           5153.528320
Right Ascen at Week(rad):  -0.2459783134E+001
Argument of Perigee(rad):  -1.956398126
Mean Anom(rad):            -0.2494238904E+001
Af0(s):                    -0.2050399780E-003
Af1(s/s):                  -0.3637978807E-011
week:                        379

******** Week 379 almanac for PRN-08 ********
ID:                         08
Health:                     000
Eccentricity:               0.1166152954E-001
Time of Applicability(s):  61440.0000
Orbital Inclination(rad):   0.9420463640
Rate of Right Ascen(r/s):  -0.7783181344E-008
SQRT(A)  (m 1/2):           5153.696777
Right Ascen at Week(rad):  -0.4151676309E+000
Argument of Perigee(rad):   0.545726399
Mean Anom(rad):             0.2396391828E+000
Af0(s):                     0.4005432129E-003
Af1(s/s):                  -0.7275957614E-011
week:                        379

******** Week 379 almanac for PRN-09 ********
ID:                         09
Health:                     000
Eccentricity:               0.3635406494E-002
Time of Applicability(s):  61440.0000
Orbital Inclination(rad):   0.9667578357
Rate of Right Ascen(r/s):  -0.7577458489E-008
SQRT(A)  (m 1/2):           5153.664551
Right Ascen at Week(rad):   0.2751248472E+001
Argument of Perigee(rad):   2.032311449
Mean Anom(rad):             0.8627900408E+000
Af0(s):                     0.7219314575E-003
Af1(s/s):                  -0.7275957614E-011
week:                        379

******** Week 379 almanac for PRN-10 ********
ID:                         10
Health:                     000
Eccentricity:               0.1110315323E-001
Time of Applicability(s):  61440.0000
Orbital Inclination(rad):   0.9941477818
Rate of Right Ascen(r/s):  -0.7908900866E-008
SQRT(A)  (m 1/2):           5153.607910
Right Ascen at Week(rad):   0.1745473895E+001
Argument of Perigee(rad):  -2.263852667
Mean Anom(rad):             0.2327464933E+001
Af0(s):                    -0.5674362183E-003
Af1(s/s):                   0.3637978807E-011
week:                        379

******** Week 379 almanac for PRN-11 ********
ID:                         11
Health:                     000
Eccentricity:               0.2468109131E-002
Time of Applicability(s):  61440.0000
Orbital Inclination(rad):   0.9627850652
Rate of Right Ascen(r/s):  -0.8103194673E-008
SQRT(A)  (m 1/2):           5153.597168
Right Ascen at Week(rad):   0.7257983659E+000
Argument of Perigee(rad):  -2.355904622
Mean Anom(rad):            -0.4674510591E+000
Af0(s):                    -0.2775192261E-003
Af1(s/s):                   0.1091393642E-010
week:                        379

******** Week 379 almanac for PRN-12 ********
ID:                         12
Health:                     000
Eccentricity:               0.8708000183E-002
Time of Applicability(s):  61440.0000
Orbital Inclination(rad):   0.9582550282
Rate of Right Ascen(r/s):  -0.7817468486E-008
SQRT(A)  (m 1/2):           5153.643066
Right Ascen at Week(rad):  -0.1340839649E+001
Argument of Perigee(rad):   1.587724793
Mean Anom(rad):             0.3004257181E+001
Af0(s):                    -0.6055831909E-003
Af1(s/s):                   0.0000000000E+000
week:                        379

******** Week 379 almanac for PRN-13 ********
ID:                         13
Health:                     063
Eccentricity:               0.2271652222E-002
Time of Applicability(s):  61440.0000
Orbital Inclination(rad):   0.9587284050
Rate of Right Ascen(r/s):  -0.7840326581E-008
SQRT(A)  (m 1/2):           5153.529785
Right Ascen at Week(rad):  -0.1449376280E+001
Argument of Perigee(rad):   1.828957878
Mean Anom(rad):             0.2852545508E+001
Af0(s):                     0.4110336304E-003
Af1(s/s):                   0.1818989404E-010
week:                        379

******** Week 379 almanac for PRN-14 ********
ID:                         14
Health:                     000
Eccentricity:               0.7349967957E-002
Time of Applicability(s):  61440.0000
Orbital Inclination(rad):   0.9415610029
Rate of Right Ascen(r/s):  -0.8034620388E-008
SQRT(A)  (m 1/2):           5153.588867
Right Ascen at Week(rad):  -0.1397598436E+001
Argument of Perigee(rad):  -2.683509888
Mean Anom(rad):             0.2889911197E+001
Af0(s):                     0.7495880127E-003
Af1(s/s):                   0.0000000000E+000
week:                        379

******** Week 379 almanac for PRN-15 ********
ID:                         15
Health:                     000
Eccentricity:               0.1700544357E-001
Time of Applicability(s):  61440.0000
Orbital Inclination(rad):   0.9447667830
Rate of Right Ascen(r/s):  -0.7863184676E-008
SQRT(A)  (m 1/2):           5153.708496
Right Ascen at Week(rad):   0.2604092676E+001
Argument of Perigee(rad):   1.533040026
Mean Anom(rad):            -0.7754834643E+000
Af0(s):                     0.4281997681E-003
Af1(s/s):                   0.3637978807E-011
week:                        379

******** Week 379 almanac for PRN-16 ********
ID:                         16
Health:                     000
Eccentricity:               0.1501798630E-001
Time of Applicability(s):  61440.0000
Orbital Inclination(rad):   0.9573322428
Rate of Right Ascen(r/s):  -0.7851755629E-008
SQRT(A)  (m 1/2):           5153.645508
Right Ascen at Week(rad):  -0.1324070722E+001
Argument of Perigee(rad):   0.937480599
Mean Anom(rad):             0.1312613054E+001
Af0(s):                     0.2975463867E-003
Af1(s/s):                   0.7275957614E-011
week:                        379

